0231P         2027 08  4.5617  3.087138  0.239996   43.6968  132.7779   12.2726  20250703  14.5  2.0  231P/LINEAR-NEAT                                         MPEC 2023-SQ0
0232P         2028 09 20.5844  2.967487  0.336126   53.3040   56.0094   14.6429  20250703  11.5  4.0  232P/Hill                                                MPC112394
0233P         2026 01  8.1360  1.776702  0.412987   27.0243   74.8975   11.2889  20250703  15.0  4.0  233P/La Sagra                                            MPEC 2021-N06
0234P         2024 10 23.6743  2.820887  0.257304  357.4450  179.5642   11.5336  20250703  12.0  4.0  234P/LINEAR                                              MPEC 2025-MC0
0235P         2025 12 22.6242  1.978024  0.426070  352.1717  200.1752    9.8127  20250703  12.0  4.0  235P/LINEAR                                              MPC184419
0236P         2025 02  3.8450  1.828144  0.509336  119.4313  245.5692   16.3550  20250703  14.0  4.0  236P/LINEAR                                              MPEC 2024-P23
0237P         2023 05 14.3325  1.995965  0.432541   25.5426  245.3584   14.0099  20250703  14.5  2.0  237P/LINEAR                                              MPC182890
0238P         2028 01 24.0569  2.373817  0.250590  324.2643   51.6491    1.2637  20250703  14.5  4.0  238P/Read                                                MPEC 2024-L77
0239P         2028 06 17.6593  1.644838  0.631511  220.3854  255.9360   11.3065  20250703  17.5  2.0  239P/LINEAR                                              MPEC 2021-F20
0240P         2025 12 19.9592  2.121799  0.450292  352.0737   74.9115   23.5372  20250703  11.0  4.0  240P/NEAT                                                MPEC 2025-MC0
0241P         2021 07 26.1902  1.921254  0.610120  111.6169  305.4165   21.0948  20250703  13.5  4.0  241P/LINEAR                                              MPEC 2022-J42
0242P         2024 12 23.3950  3.971701  0.282852  244.9888  180.2378   32.4231  20250703   8.0  4.0  242P/Spahr                                               MPEC 2025-MC0
0243P         2026 02 25.5393  2.448037  0.360295  283.7032   87.6476    7.6441  20250703  12.5  4.0  243P/NEAT                                                MPEC 2022-K19
0244P         2022 11 20.1503  3.924575  0.199826   93.5156  354.0069    2.2576  20250703   9.0  4.0  244P/Scotti                                              MPEC 2024-L77
0245P         2026 03 31.1900  2.205484  0.455815  316.5000  316.8849   21.1714  20250703  14.0  4.0  245P/WISE                                                MPEC 2022-CN4
0246P         2029 10 22.8767  3.360173  0.218903  185.4327   74.1998   17.4526  20250703  10.5  4.0  246P/NEAT                                                MPEC 2024-YC7
0247P         2026 10 25.9553  1.484090  0.625589   47.5071   53.9858   13.6581  20250703  16.5  2.0  247P/LINEAR                                              MPEC 2021-F20
0248P         2025 09 14.9260  2.157755  0.639312  209.9910  207.7960    6.3519  20250703  14.0  4.0  248P/Gibbs                                               MPEC 2025-MC0
0249P         2025 02  1.7000  0.499572  0.819390   65.7555  239.0400    8.3842  20250703  15.5  4.0  249P/LINEAR                                              MPEC 2022-YN2
0250P         2025 05 16.7227  2.272322  0.398311   45.7040   73.3024   13.1519  20250703  14.5  4.0  250P/Larson                                              MPC182890
0251P         2024 02 13.1387  1.741163  0.504201   31.1916  219.3372   23.3885  20250703  16.5  2.0  251P/LINEAR                                              MPEC 2024-TD8
0252P         2026 11  7.7310  1.003689  0.671058  343.3742  190.9063   10.4200  20250703  17.5  4.0  252P/LINEAR                                              MPEC 2021-S45
0253P         2024 10 21.0338  2.026325  0.415256  230.8502  146.8276    4.9454  20250703  14.5  4.0  253P/PANSTARRS                                           MPC182890
0254P         2020 09 28.3474  3.148829  0.318452  219.7233  129.1789   32.5383  20250703  11.0  4.0  254P/McNaught                                            MPC184419
0255P         2027 09 25.5062  0.847191  0.712061  186.0457  275.6367   13.4054  20250703   9.0  4.0  255P/Levy                                                NK   2214
0256P         2023 03 11.9409  2.697418  0.418026  124.0630   81.3240   27.6233  20250703  14.0  2.0  256P/LINEAR                                              MPEC 2024-L77
0257P         2028 01  1.6896  2.152447  0.428761  117.7234  207.7291   20.2154  20250703  11.5  4.0  257P/Catalina                                            MPEC 2023-A50
0258P         2029 08 28.8016  3.468976  0.209574   25.6115  126.2361    6.7512  20250703  13.0  4.0  258P/PANSTARRS                                           MPEC 2021-U31
0259P         2026 08 12.1554  1.804888  0.338734  257.4859   51.3733   15.8981  20250703  15.5  4.0  259P/Garradd                                             MPC106349
0260P         2026 08  4.9947  1.417645  0.608779   18.4929  349.3036   15.0429  20250703  13.5  4.0  260P/McNaught                                            MPEC 2022-O01
0261P         2025 12 27.4039  2.014217  0.422797   67.3632  291.0506    6.0733  20250703  14.0  4.0  261P/Larson                                              MPEC 2025-MC0
0262P         2030 12 15.1139  1.264255  0.815957  171.0696  217.8863   29.2477  20250703  13.5  4.0  262P/McNaught-Russell                                    MPC 82322
0263P         2023 01 30.9276  1.234368  0.594069   35.0220  105.5040   11.5267  20250703  18.0  4.0  263P/Gibbs                                               MPEC 2024-L77
0264P         2027 03 15.6340  2.658254  0.340320  341.1384  219.1275   25.1366  20250703  13.0  4.0  264P/Larsen                                              MPC114608
0265P         2021 02  8.6568  1.505394  0.646695   33.5653  342.9203   14.3402  20250703  14.5  4.0  265P/LINEAR                                              MPC 79870
0266P         2026 12  7.3183  2.325057  0.340941   97.7943    4.9464    3.4284  20250703  14.7  4.0  266P/Christensen                                         MPEC 2021-F20
0267P         2024 04 24.9462  1.235258  0.614941  114.1969  228.5441    6.1396  20250703  19.5  4.0  267P/LONEOS                                              MPC114608
0268P         2024 12 18.4842  2.412717  0.474487    0.0184  125.6324   15.6615  20250703  14.0  4.0  268P/Bernardi                                            MPEC 2025-MC0
0269P         2033 07 11.3665  3.998248  0.433538  225.7354  241.7636    7.0838  20250703  10.0  4.0  269P/Jedicke                                             MPEC 2023-J29
0270P         2030 08 16.7041  3.522717  0.470188  209.9336  223.0239    2.9248  20250703   8.0  4.0  270P/Gehrels                                             MPC 88332
0271P         2032 03 21.8553  4.248642  0.395856   36.6222    9.2769    6.8665  20250703  11.0  4.0  271P/van Houten-Lemmon                                   MPC 92277
0272P         2022 07 17.5264  2.429476  0.455520   27.8904  109.4391   18.0824  20250703  16.0  2.0  272P/NEAT                                                MPEC 2023-D41
0273P         2012 12 21.9023  0.813217  0.974525   20.1223  320.3832  136.3602  20250703  11.5  4.0  273P/Pons-Gambart                                        MPC 82723
0274P         2022 04  9.1965  2.450854  0.440253   38.4961   81.3175   15.8205  20250703  13.0  4.0  274P/Tombaugh-Tenagra                                    MPEC 2024-GJ3
0275P         2026 10 27.9804  1.659078  0.713770  173.8937  348.6842   21.2540  20250703  17.0  4.0  275P/Hermann                                             MPC 81862
0276P         2024 12 11.1242  3.898615  0.273888  199.3859  211.2494   14.7703  20250703  11.5  4.0  276P/Vorobjov                                            MPC184419
0277P         2028 07 25.8645  1.902157  0.506394  152.4383  276.2600   16.7930  20250703  15.1  4.0  277P/LINEAR                                              MPEC 2021-F20
0278P         2027 09 14.8528  1.993917  0.451955  240.7176   12.4749    6.6123  20250703  14.0  4.0  278P/McNaught                                            MPEC 2021-S45
0279P         2023 04 18.7378  2.142608  0.399475    5.6250  346.0985    5.0531  20250703  14.0  4.0  279P/LaSagra                                             MPEC 2024-A43
0280P         2023 08  4.3866  2.638489  0.416830  104.6344  131.3779   11.7754  20250703  12.5  4.0  280P/Larsen                                              MPEC 2024-RQ6
0281P         2023 02  4.2921  4.036942  0.173927   27.0202   87.1663    4.7176  20250703  11.0  4.0  281P/MOSS                                                MPEC 2023-D41
0282P         2021 10 22.5927  3.440624  0.187654    9.0853  217.6071    5.8138  20250703  13.5  2.0  282P                                                     MPC133426
0283P         2021 09  8.3702  2.127744  0.485012   22.1444  161.1238   14.4687  20250703  16.0  2.0  283P/Spacewatch                                          MPEC 2022-K19
0284P         2028 10  1.6397  2.301948  0.374297  202.4618  144.2639   11.8529  20250703  13.0  4.0  284P/McNaught                                            MPEC 2024-D33
0285P         2023 01 11.7926  1.720766  0.618056  178.3841  185.5142   25.0325  20250703  15.0  4.0  285P/LINEAR                                              MPEC 2024-L77
0286P         2022 05 12.6936  2.317942  0.431412   23.9822  283.5765   17.2318  20250703  14.0  4.0  286P/Christensen                                         MPEC 2024-LE0
0287P         2023 07 10.9615  3.045867  0.272863  190.5398  138.6528   16.3471  20250703  13.5  4.0  287P/Christensen                                         MPEC 2025-A40
0288P         2027 06 29.0021  2.441701  0.199596  280.2841   83.1063    3.2383  20250703  16.0  2.0  288P                                                     MPC133426
